{
  "type": "FeatureCollection",
  "features": [
    {
      "type": "Feature",
      "properties": {
        "norad_id": 44334,
        "name": "EUTELSAT 7C",
        "group": "eutelsat",
        "lat": -0.029119650776507033,
        "lon": 46.44393124735029,
        "alt_km": 35797.79239037839,
        "timestamp": "2025-12-19T20:42:59.752456+00:00",
        "meta_object_name": "EUTELSAT 7C",
        "meta_object_id": "2019-034B",
        "meta_epoch": "2025-12-18T15:02:24.148896",
        "meta_mean_motion": 1.00271261,
        "meta_eccentricity": 0.00030271,
        "meta_inclination": 0.073,
        "meta_ra_of_asc_node": 178.0783,
        "meta_arg_of_pericenter": 72.8613,
        "meta_mean_anomaly": 69.1342,
        "meta_ephemeris_type": 0,
        "meta_classification_type": "U",
        "meta_norad_cat_id": 44334,
        "meta_element_set_no": 999,
        "meta_rev_at_epoch": 502,
        "meta_bstar": 0,
        "meta_mean_motion_dot": 7.3e-07,
        "meta_mean_motion_ddot": 0,
        "tle_line1": "1 44334U 19034B   25352.62666839  .00000073  00000+0  00000+0 0  9996",
        "tle_line2": "2 44334   0.0730 178.0783 0003027  72.8613  69.1342  1.00271261  5025"
      },
      "geometry": {
        "type": "Point",
        "coordinates": [
          46.44393124735029,
          -0.029119650776507033
        ]
      }
    },
    {
      "type": "Feature",
      "properties": {
        "norad_id": 44624,
        "name": "EUTELSAT 5 WEST B",
        "group": "eutelsat",
        "lat": 0.07912840566880928,
        "lon": 34.478360114636985,
        "alt_km": 35793.73347018436,
        "timestamp": "2025-12-19T20:42:59.752468+00:00",
        "meta_object_name": "EUTELSAT 5 WEST B",
        "meta_object_id": "2019-067A",
        "meta_epoch": "2025-12-19T06:23:28.768416",
        "meta_mean_motion": 1.00271263,
        "meta_eccentricity": 0.00029971,
        "meta_inclination": 0.0687,
        "meta_ra_of_asc_node": 332.7359,
        "meta_arg_of_pericenter": 295.3999,
        "meta_mean_anomaly": 270.859,
        "meta_ephemeris_type": 0,
        "meta_classification_type": "U",
        "meta_norad_cat_id": 44624,
        "meta_element_set_no": 999,
        "meta_rev_at_epoch": 2263,
        "meta_bstar": 0,
        "meta_mean_motion_dot": -1.7e-07,
        "meta_mean_motion_ddot": 0,
        "tle_line1": "1 44624U 19067A   25353.26630519 -.00000017  00000+0  00000+0 0  9990",
        "tle_line2": "2 44624   0.0687 332.7359 0002997 295.3999 270.8590  1.00271263 22634"
      },
      "geometry": {
        "type": "Point",
        "coordinates": [
          34.478360114636985,
          0.07912840566880928
        ]
      }
    },
    {
      "type": "Feature",
      "properties": {
        "norad_id": 45027,
        "name": "EUTELSAT KONNECT",
        "group": "eutelsat",
        "lat": -0.030621425646896894,
        "lon": 46.65968826864041,
        "alt_km": 35788.81192595526,
        "timestamp": "2025-12-19T20:42:59.752480+00:00",
        "meta_object_name": "EUTELSAT KONNECT",
        "meta_object_id": "2020-005B",
        "meta_epoch": "2025-12-18T15:02:31.637184",
        "meta_mean_motion": 1.00271854,
        "meta_eccentricity": 0.00013062,
        "meta_inclination": 0.0731,
        "meta_ra_of_asc_node": 95.4615,
        "meta_arg_of_pericenter": 190.4779,
        "meta_mean_anomaly": 34.3804,
        "meta_ephemeris_type": 0,
        "meta_classification_type": "U",
        "meta_norad_cat_id": 45027,
        "meta_element_set_no": 999,
        "meta_rev_at_epoch": 2252,
        "meta_bstar": 0,
        "meta_mean_motion_dot": 7.5e-07,
        "meta_mean_motion_ddot": 0,
        "tle_line1": "1 45027U 20005B   25352.62675506  .00000075  00000+0  00000+0 0  9999",
        "tle_line2": "2 45027   0.0731  95.4615 0001306 190.4779  34.3804  1.00271854 22529"
      },
      "geometry": {
        "type": "Point",
        "coordinates": [
          46.65968826864041,
          -0.030621425646896894
        ]
      }
    },
    {
      "type": "Feature",
      "properties": {
        "norad_id": 49056,
        "name": "EUTELSAT QUANTUM",
        "group": "eutelsat",
        "lat": 0.03940987790707838,
        "lon": 87.15620963328924,
        "alt_km": 35799.85540063759,
        "timestamp": "2025-12-19T20:42:59.752492+00:00",
        "meta_object_name": "EUTELSAT QUANTUM",
        "meta_object_id": "2021-069B",
        "meta_epoch": "2025-12-19T06:38:19.846176",
        "meta_mean_motion": 1.00271591,
        "meta_eccentricity": 0.00033236,
        "meta_inclination": 0.0171,
        "meta_ra_of_asc_node": 26.4091,
        "meta_arg_of_pericenter": 252.46,
        "meta_mean_anomaly": 316.5454,
        "meta_ephemeris_type": 0,
        "meta_classification_type": "U",
        "meta_norad_cat_id": 49056,
        "meta_element_set_no": 999,
        "meta_rev_at_epoch": 1612,
        "meta_bstar": 0,
        "meta_mean_motion_dot": 1.51e-06,
        "meta_mean_motion_ddot": 0,
        "tle_line1": "1 49056U 21069B   25353.27661859  .00000151  00000+0  00000+0 0  9999",
        "tle_line2": "2 49056   0.0171  26.4091 0003323 252.4600 316.5454  1.00271591 16121"
      },
      "geometry": {
        "type": "Point",
        "coordinates": [
          87.15620963328924,
          0.03940987790707838
        ]
      }
    },
    {
      "type": "Feature",
      "properties": {
        "norad_id": 53765,
        "name": "EUTELSAT KONNECT VHTS",
        "group": "eutelsat",
        "lat": -0.029790353834867174,
        "lon": 42.1840223813145,
        "alt_km": 35795.62418486789,
        "timestamp": "2025-12-19T20:42:59.752503+00:00",
        "meta_object_name": "EUTELSAT KONNECT VHTS",
        "meta_object_id": "2022-110A",
        "meta_epoch": "2025-12-18T22:15:38.693952",
        "meta_mean_motion": 1.00269719,
        "meta_eccentricity": 0.00022903,
        "meta_inclination": 0.0647,
        "meta_ra_of_asc_node": 100.6033,
        "meta_arg_of_pericenter": 142.9466,
        "meta_mean_anomaly": 180.8811,
        "meta_ephemeris_type": 0,
        "meta_classification_type": "U",
        "meta_norad_cat_id": 53765,
        "meta_element_set_no": 999,
        "meta_rev_at_epoch": 501,
        "meta_bstar": 0,
        "meta_mean_motion_dot": 4.2e-07,
        "meta_mean_motion_ddot": 0,
        "tle_line1": "1 53765U 22110A   25352.92753118  .00000042  00000+0  00000+0 0  9999",
        "tle_line2": "2 53765   0.0647 100.6033 0002290 142.9466 180.8811  1.00269719  5011"
      },
      "geometry": {
        "type": "Point",
        "coordinates": [
          42.1840223813145,
          -0.029790353834867174
        ]
      }
    },
    {
      "type": "Feature",
      "properties": {
        "norad_id": 54048,
        "name": "EUTELSAT HOTBIRD 13F",
        "group": "eutelsat",
        "lat": 0.061412527190093,
        "lon": 52.45547929006235,
        "alt_km": 35779.62888610134,
        "timestamp": "2025-12-19T20:42:59.752529+00:00",
        "meta_object_name": "EUTELSAT HOTBIRD 13F",
        "meta_object_id": "2022-134A",
        "meta_epoch": "2025-12-18T15:04:08.982336",
        "meta_mean_motion": 1.00271613,
        "meta_eccentricity": 0.00022524,
        "meta_inclination": 0.0514,
        "meta_ra_of_asc_node": 293.3957,
        "meta_arg_of_pericenter": 71.3583,
        "meta_mean_anomaly": 321.7634,
        "meta_ephemeris_type": 0,
        "meta_classification_type": "U",
        "meta_norad_cat_id": 54048,
        "meta_element_set_no": 999,
        "meta_rev_at_epoch": 1156,
        "meta_bstar": 0,
        "meta_mean_motion_dot": 1.12e-06,
        "meta_mean_motion_ddot": 0,
        "tle_line1": "1 54048U 22134A   25352.62788174  .00000112  00000+0  00000+0 0  9995",
        "tle_line2": "2 54048   0.0514 293.3957 0002252  71.3583 321.7634  1.00271613 11569"
      },
      "geometry": {
        "type": "Point",
        "coordinates": [
          52.45547929006235,
          0.061412527190093
        ]
      }
    },
    {
      "type": "Feature",
      "properties": {
        "norad_id": 54225,
        "name": "EUTELSAT HOTBIRD 13G",
        "group": "eutelsat",
        "lat": 0.025115830377677045,
        "lon": 52.418351658358546,
        "alt_km": 35789.6743585806,
        "timestamp": "2025-12-19T20:42:59.752544+00:00",
        "meta_object_name": "EUTELSAT HOTBIRD 13G",
        "meta_object_id": "2022-146A",
        "meta_epoch": "2025-12-19T06:28:43.266144",
        "meta_mean_motion": 1.00272573,
        "meta_eccentricity": 0.00017546,
        "meta_inclination": 0.0516,
        "meta_ra_of_asc_node": 228.388,
        "meta_arg_of_pericenter": 305.7991,
        "meta_mean_anomaly": 24.1032,
        "meta_ephemeris_type": 0,
        "meta_classification_type": "U",
        "meta_norad_cat_id": 54225,
        "meta_element_set_no": 999,
        "meta_rev_at_epoch": 566,
        "meta_bstar": 0,
        "meta_mean_motion_dot": 1.12e-06,
        "meta_mean_motion_ddot": 0,
        "tle_line1": "1 54225U 22146A   25353.26994521  .00000112  00000+0  00000+0 0  9991",
        "tle_line2": "2 54225   0.0516 228.3880 0001754 305.7991  24.1032  1.00272573  5660"
      },
      "geometry": {
        "type": "Point",
        "coordinates": [
          52.418351658358546,
          0.025115830377677045
        ]
      }
    }
  ]
}